H1 CPF  1  SGF 2022  2 25  2  5561 larets    
H2  0304206 5557    27944 2022  2 24  0  0  0 2022  3  1 23 57  0   180 1 1  0 0 0
H9
10 0 59638  37800.00000  0  -4182468.635  -5683323.017   -339421.054
10 0 59638  37980.00000  0  -4370315.012  -5460538.022    995568.438
10 0 59638  38160.00000  0  -4390634.070  -5036309.693   2294064.833
10 0 59638  38340.00000  0  -4237734.118  -4430632.227   3508512.681
10 0 59638  38520.00000  0  -3912875.907  -3670184.830   4594513.008
10 0 59638  38700.00000  0  -3424353.163  -2787132.167   5512458.986
10 0 59638  38880.00000  0  -2787278.509  -1817732.824   6228961.084
10 0 59638  39060.00000  0  -2023093.283   -800831.483   6718022.938
10 0 59638  39240.00000  0  -1158821.215    223707.916   6961938.490
10 0 59638  39420.00000  0   -226100.008   1216557.873   6951882.522
10 0 59638  39600.00000  0    739969.385   2140419.239   6688205.336
10 0 59638  39780.00000  0   1702129.745   2961410.113   6180423.278
10 0 59638  39960.00000  0   2622388.442   3650303.897   5446904.047
10 0 59638  40140.00000  0   3463509.969   4183584.344   4514252.817
10 0 59638  40320.00000  0   4190529.022   4544276.538   3416397.469
10 0 59638  40500.00000  0   4772224.223   4722522.264   2193397.387
10 0 59638  40680.00000  0   5182487.509   4715866.791    889991.984
10 0 59638  40860.00000  0   5401513.015   4529235.984   -446052.062
10 0 59638  41040.00000  0   5416741.600   4174597.190  -1765735.778
10 0 59638  41220.00000  0   5223504.275   3670319.104  -3020676.075
10 0 59638  41400.00000  0   4825335.586   3040267.084  -4164924.449
10 0 59638  41580.00000  0   4233939.783   2312685.512  -5156677.498
10 0 59638  41760.00000  0   3468815.875   1518922.838  -5959804.590
10 0 59638  41940.00000  0   2556568.339    692069.968  -6545134.779
10 0 59638  42120.00000  0   1529939.576   -134421.461  -6891467.713
10 0 59638  42300.00000  0    426613.646   -928084.121  -6986290.179
10 0 59638  42480.00000  0   -712170.822  -1658697.432  -6826191.431
10 0 59638  42660.00000  0  -1843149.376  -2299422.603  -6416971.253
10 0 59638  42840.00000  0  -2922658.357  -2827781.772  -5773446.093
10 0 59638  43020.00000  0  -3908308.752  -3226450.507  -4918952.794
10 0 59638  43200.00000  0  -4760660.263  -3483841.667  -3884555.494
10 0 59638  43380.00000  0  -5444828.473  -3594452.418  -2707959.327
10 0 59638  43560.00000  0  -5931954.306  -3558956.958  -1432159.807
10 0 59638  43740.00000  0  -6200462.310  -3384035.602   -103867.249
10 0 59638  43920.00000  0  -6237040.477  -3081944.331   1228232.991
10 0 59638  44100.00000  0  -6037285.470  -2669844.241   2515314.140
10 0 59638  44280.00000  0  -5605969.609  -2168922.585   3710248.401
10 0 59638  44460.00000  0  -4956924.113  -1603357.161   4769366.534
10 0 59638  44640.00000  0  -4112545.206   -999177.117   5654060.466
10 0 59638  44820.00000  0  -3102965.705   -383086.109   6332165.518
10 0 59638  45000.00000  0  -1964931.740    218701.156   6779090.643
10 0 59638  45180.00000  0   -740431.336    781555.915   6978658.631
10 0 59638  45360.00000  0    524860.814   1283423.413   6923647.138
10 0 59638  45540.00000  0   1783272.561   1705674.657   6616029.299
10 0 59638  45720.00000  0   2986910.095   2033793.710   6066910.055
10 0 59638  45900.00000  0   4089468.017   2257877.988   5296160.257
10 0 59638  46080.00000  0   5048017.603   2372937.579   4331748.097
10 0 59638  46260.00000  0   5824709.450   2378984.885   3208778.780
10 0 59638  46440.00000  0   6388324.042   2280903.851   1968248.895
10 0 59638  46620.00000  0   6715585.153   2088102.268    655557.810
10 0 59638  46800.00000  0   6792174.574   1813960.410   -681176.254
10 0 59638  46980.00000  0   6613379.785   1475102.202  -1992926.266
10 0 59638  47160.00000  0   6184343.607   1090523.933  -3231604.179
10 0 59638  47340.00000  0   5519902.085    680627.235  -4351870.305
10 0 59638  47520.00000  0   4644014.318    266211.179  -5312817.489
10 0 59638  47700.00000  0   3588827.758   -132523.836  -6079456.130
10 0 59638  47880.00000  0   2393436.283   -496910.399  -6623954.466
10 0 59638  48060.00000  0   1102386.574   -810647.543  -6926600.028
10 0 59638  48240.00000  0   -235998.837  -1060500.554  -6976463.573
10 0 59638  48420.00000  0  -1571426.136  -1236840.723  -6771759.955
10 0 59638  48600.00000  0  -2853502.656  -1334009.952  -6319903.889
10 0 59638  48780.00000  0  -4033620.623  -1350499.316  -5637258.942
10 0 59638  48960.00000  0  -5066797.278  -1288938.215  -4748590.576
10 0 59638  49140.00000  0  -5913416.541  -1155893.528  -3686219.485
10 0 59638  49320.00000  0  -6540798.769   -961484.447  -2488888.764
10 0 59638  49500.00000  0  -6924528.520   -718826.922  -1200370.213
10 0 59638  49680.00000  0  -7049469.820   -443331.531    132145.807
10 0 59638  49860.00000  0  -6910407.213   -151885.056   1459816.439
10 0 59638  50040.00000  0  -6512274.005    138037.928   2733984.487
10 0 59638  50220.00000  0  -5869957.122    409285.257   3908009.345
10 0 59638  50400.00000  0  -5007687.086    645913.026   4939005.113
10 0 59638  50580.00000  0  -3958054.599    833998.962   5789407.237
10 0 59638  50760.00000  0  -2760715.394    962345.094   6428312.795
10 0 59638  50940.00000  0  -1460845.658   1023037.991   6832560.861
10 0 59638  51120.00000  0   -107411.791   1011846.873   6987522.302
10 0 59638  51300.00000  0   1248671.313    928443.950   6887585.536
10 0 59638  51480.00000  0   2556434.465    776441.033   6536343.454
10 0 59638  51660.00000  0   3766749.557    563241.597   5946478.967
10 0 59638  51840.00000  0   4834171.861    299711.480   5139346.134
10 0 59638  52020.00000  0   5718665.936      -322.843   4144248.977
10 0 59638  52200.00000  0   6387155.614   -320730.515   2997428.504
10 0 59638  52380.00000  0   6814829.984   -643858.474   1740772.193
10 0 59638  52560.00000  0   6986132.950   -951409.166    420285.699
10 0 59638  52740.00000  0   6895387.862  -1225369.512   -915615.726
10 0 59638  52920.00000  0   6547012.647  -1448942.826  -2217932.020
10 0 59638  53100.00000  0   5955306.900  -1607433.121  -3438929.417
10 0 59638  53280.00000  0   5143826.563  -1689034.231  -4533931.128
10 0 59638  53460.00000  0   4144386.658  -1685482.031  -5462968.888
10 0 59638  53640.00000  0   2995748.207  -1592540.625  -6192231.159
10 0 59638  53820.00000  0   1742058.942  -1410301.459  -6695255.368
10 0 59638  54000.00000  0    431125.189  -1143282.185  -6953838.821
10 0 59638  54180.00000  0   -887419.501   -800327.769  -6958649.485
10 0 59638  54360.00000  0  -2163981.758   -394317.123  -6709532.653
10 0 59638  54540.00000  0  -3350855.896     58316.904  -6215511.069
10 0 59638  54720.00000  0  -4403992.181    538238.605  -5494481.229
10 0 59638  54900.00000  0  -5284640.175   1024011.242  -4572612.316
10 0 59638  55080.00000  0  -5960810.894   1493024.069  -3483449.172
10 0 59638  55260.00000  0  -6408496.851   1922512.131  -2266730.757
10 0 59638  55440.00000  0  -6612588.412   2290619.332   -966954.718
10 0 59638  55620.00000  0  -6567438.688   2577454.864    368264.861
10 0 59638  55800.00000  0  -6277036.326   2766086.286   1689983.043
10 0 59638  55980.00000  0  -5754771.493   2843417.631   2949768.574
10 0 59638  56160.00000  0  -5022809.434   2800904.388   4101523.036
10 0 59638  56340.00000  0  -4111108.747   2635066.026   5103192.761
10 0 59638  56520.00000  0  -3056143.000   2347775.550   5918298.334
10 0 59638  56700.00000  0  -1899396.364   1946318.840   6517234.406
10 0 59638  56880.00000  0   -685698.515   1443220.842   6878299.004
10 0 59638  57060.00000  0    538521.737    855848.640   6988425.687
10 0 59638  57240.00000  0   1726998.075    205809.783   6843618.404
10 0 59638  57420.00000  0   2835354.007   -481834.672   6449086.996
10 0 59638  57600.00000  0   3822746.212  -1179522.241   5819081.318
10 0 59638  57780.00000  0   4653376.030  -1858277.775   4976419.124
10 0 59638  57960.00000  0   5297814.358  -2488903.672   3951711.559
10 0 59638  58140.00000  0   5734094.100  -3043227.540   2782299.559
10 0 59638  58320.00000  0   5948515.956  -3495354.768   1510916.511
10 0 59638  58500.00000  0   5936121.910  -3822865.706    184124.589
10 0 59638  58680.00000  0   5700809.737  -4007895.243  -1149420.802
10 0 59638  58860.00000  0   5255074.526  -4038033.870  -2440805.955
10 0 59638  59040.00000  0   4619385.956  -3906998.524  -3642706.197
10 0 59638  59220.00000  0   3821238.030  -3615041.792  -4711158.785
10 0 59638  59400.00000  0   2893924.749  -3169078.763  -5607184.287
10 0 59638  59580.00000  0   1875111.578  -2582530.677  -6298189.648
10 0 59638  59760.00000  0    805279.289  -1874903.856  -6759112.831
10 0 59638  59940.00000  0   -273897.988  -1071118.263  -6973285.581
10 0 59638  60120.00000  0  -1321173.113   -200616.189  -6932987.788
10 0 59638  60300.00000  0  -2297286.780    703712.888  -6639697.695
10 0 59638  60480.00000  0  -3166424.182   1606761.405  -6104037.439
10 0 59638  60660.00000  0  -3897522.410   2472550.021  -5345418.604
10 0 59638  60840.00000  0  -4465396.683   3265653.264  -4391389.862
10 0 59638  61020.00000  0  -4851640.709   3952653.982  -3276683.182
10 0 59638  61200.00000  0  -5045257.717   4503565.175  -2041984.234
10 0 59638  61380.00000  0  -5042994.956   4893154.748   -732458.879
10 0 59638  61560.00000  0  -4849359.632   5102106.615    603916.325
10 0 59638  61740.00000  0  -4476305.652   5117953.449   1918154.784
10 0 59638  61920.00000  0  -3942604.141   4935724.069   3162109.269
10 0 59638  62100.00000  0  -3272928.007   4558272.331   4290278.249
10 0 59638  62280.00000  0  -2496709.697   3996278.123   5261487.711
10 0 59638  62460.00000  0  -1646833.846   3267924.476   6040386.256
10 0 59638  62640.00000  0   -758229.437   2398269.844   6598697.712
10 0 59638  62820.00000  0    133568.767   1418351.718   6916194.765
10 0 59638  63000.00000  0    993829.808    364064.457   6981382.611
10 0 59638  63180.00000  0   1789963.545   -725151.318   6791883.434
99
